NORAD_CAT_ID,OBJECT_NAME,OBJECT_TYPE,EPOCH,MEAN_MOTION,ECCENTRICITY,INCLINATION,RA_OF_ASC_NODE,ARG_OF_PERICENTER,MEAN_ANOMALY,BSTAR,MEAN_MOTION_DOT,MEAN_MOTION_DDOT,TLE_LINE0,TLE_LINE1,TLE_LINE2,SEMIMAJOR_AXIS,PERIOD,APOGEE,PERIGEE,DECAYED
51783.0,STARLINK-3628,PAYLOAD,2023-06-14 08:29:04,15.08841512,0.0001259,53.2161,145.3634,87.5524,272.5612,3.9011e-05,3.33e-06,0.0,0 STARLINK-3628,1 51783U 22017R   23165.35352530  .00000333  00000-0  39011-4 0  9996,2 51783  53.2161 145.3634 0001259  87.5524 272.5612 15.08841512 73198,6917.876,95.437,540.612,538.87,0.0
51783.0,STARLINK-3628,PAYLOAD,2023-06-15 08:19:51,15.08840044,0.000127,53.2163,140.9026,88.4188,271.695,5.9039e-05,6.52e-06,0.0,0 STARLINK-3628,1 51783U 22017R   23166.34712612  .00000652  00000-0  59039-4 0  9993,2 51783  53.2163 140.9026 0001270  88.4188 271.6950 15.08840044 71704,6917.88,95.438,540.624,538.867,0.0
51783.0,STARLINK-3628,PAYLOAD,2023-06-16 01:49:06,15.08838235,0.000131,53.2167,137.6313,88.5738,271.5404,1.9884e-05,2.9e-07,0.0,0 STARLINK-3628,1 51783U 22017R   23167.07576977  .00000029  00000-0  19884-4 0  9998,2 51783  53.2167 137.6313 0001310  88.5738 271.5404 15.08838235 73453,6917.886,95.438,540.657,538.845,0.0
51783.0,STARLINK-3628,PAYLOAD,2023-06-16 06:35:15,15.08842977,0.0001303,53.2166,136.7395,88.0633,272.0509,5.8639e-05,6.46e-06,0.0,0 STARLINK-3628,1 51783U 22017R   23167.27448568  .00000646  00000-0  58639-4 0  9990,2 51783  53.2166 136.7395 0001303  88.0633 272.0509 15.08842977 71844,6917.871,95.437,540.638,538.835,0.0
51783.0,STARLINK-3628,PAYLOAD,2023-06-16 14:32:11,15.0884123,0.0001305,53.2167,135.2528,87.4139,272.7003,4.5783e-05,4.41e-06,0.0,0 STARLINK-3628,1 51783U 22017R   23167.60568687  .00000441  00000-0  45783-4 0  9991,2 51783  53.2167 135.2528 0001305  87.4139 272.7003 15.08841230 71895,6917.877,95.437,540.644,538.839,0.0
51783.0,STARLINK-3628,PAYLOAD,2023-06-17 06:26:02,15.08840647,0.0001304,53.2169,132.2806,91.0554,269.0587,4.3774e-05,4.09e-06,0.0,0 STARLINK-3628,1 51783U 22017R   23168.26808756  .00000409  00000-0  43774-4 0  9990,2 51783  53.2169 132.2806 0001304  91.0554 269.0587 15.08840647 73635,6917.878,95.438,540.646,538.841,0.0
51783.0,STARLINK-3628,PAYLOAD,2023-06-17 14:22:59,15.08833697,0.0001303,53.2165,130.7948,94.6278,265.4863,-2.4545e-05,-6.78e-06,0.0,0 STARLINK-3628,1 51783U 22017R   23168.59929470 -.00000678  00000-0 -24545-4 0  9998,2 51783  53.2165 130.7948 0001303  94.6278 265.4863 15.08833697 73681,6917.9,95.438,540.666,538.863,0.0
51783.0,STARLINK-3628,PAYLOAD,2023-06-18 06:16:50,15.08834501,0.0001392,53.2163,127.8201,95.3782,264.7369,-6.8317e-05,-1.375e-05,0.0,0 STARLINK-3628,1 51783U 22017R   23169.26169876 -.00001375  00000-0 -68317-4 0  9999,2 51783  53.2163 127.8201 0001392  95.3782 264.7369 15.08834501 72142,6917.897,95.438,540.725,538.799,0.0
51783.0,STARLINK-3628,PAYLOAD,2023-06-18 14:13:46,15.08837767,0.0001334,53.2171,126.3344,96.9975,263.1169,2.1054e-05,4.7e-07,0.0,0 STARLINK-3628,1 51783U 22017R   23169.59289519  .00000047  00000-0  21054-4 0  9992,2 51783  53.2171 126.3344 0001334  96.9975 263.1169 15.08837767 72193,6917.887,95.438,540.675,538.829,0.0
51783.0,STARLINK-3628,PAYLOAD,2023-06-19 06:07:36,15.08845627,0.0001332,53.2165,123.3594,97.9316,262.1827,8.8688e-05,1.124e-05,0.0,0 STARLINK-3628,1 51783U 22017R   23170.25528804  .00001124  00000-0  88688-4 0  9993,2 51783  53.2165 123.3594 0001332  97.9316 262.1827 15.08845627 73935,6917.863,95.437,540.65,538.807,0.0
51783.0,STARLINK-3628,PAYLOAD,2023-06-19 14:04:32,15.08842915,0.0001319,53.2168,121.8706,85.6067,274.5075,-1.155e-05,-4.72e-06,0.0,0 STARLINK-3628,1 51783U 22017R   23170.58649293 -.00000472  00000-0 -11550-4 0  9996,2 51783  53.2168 121.8706 0001319  85.6067 274.5075 15.08842915 72341,6917.871,95.437,540.649,538.824,0.0
51783.0,STARLINK-3628,PAYLOAD,2023-06-20 02:47:38,15.08832277,0.0001245,53.2168,119.4912,89.861,270.2525,8.5316e-05,1.07e-05,0.0,0 STARLINK-3628,1 51783U 22017R   23171.11641860  .00001070  00000-0  85316-4 0  9992,2 51783  53.2168 119.4912 0001245  89.8610 270.2525 15.08832277 74065,6917.904,95.438,540.63,538.908,0.0
51783.0,STARLINK-3628,PAYLOAD,2023-06-20 05:58:24,15.08835388,0.0001314,53.2169,118.8964,96.1405,263.9736,5.3461e-05,5.63e-06,0.0,0 STARLINK-3628,1 51783U 22017R   23171.24889811  .00000563  00000-0  53461-4 0  9998,2 51783  53.2169 118.8964 0001314  96.1405 263.9736 15.08835388 72445,6917.894,95.438,540.668,538.85,0.0
51783.0,STARLINK-3628,PAYLOAD,2023-06-20 20:16:52,15.08839867,0.0001221,53.2165,116.2216,88.9405,271.1727,1.5258e-05,-4.5e-07,0.0,0 STARLINK-3628,1 51783U 22017R   23171.84505749 -.00000045  00000-0  15258-4 0  9997,2 51783  53.2165 116.2216 0001221  88.9405 271.1727 15.08839867 72536,6917.881,95.438,540.59,538.901,0.0
51783.0,STARLINK-3628,PAYLOAD,2023-06-21 02:38:25,15.08846766,0.0001279,53.2167,115.0319,87.4443,272.6695,1.2024e-06,-2.69e-06,0.0,0 STARLINK-3628,1 51783U 22017R   23172.11001357 -.00000269  00000-0  12024-5 0  9991,2 51783  53.2167 115.0319 0001279  87.4443 272.6695 15.08846766 74211,6917.86,95.437,540.61,538.84,0.0
51783.0,STARLINK-3628,PAYLOAD,2023-06-21 05:49:11,15.08848448,0.0001222,53.2167,114.437,94.2139,265.8993,2.5007e-05,1.1e-06,0.0,0 STARLINK-3628,1 51783U 22017R   23172.24249110  .00000110  00000-0  25007-4 0  9994,2 51783  53.2167 114.4370 0001222  94.2139 265.8993 15.08848448 72590,6917.855,95.437,540.565,538.874,0.0
51783.0,STARLINK-3628,PAYLOAD,2023-06-21 13:46:07,15.08844767,0.0001234,53.2163,112.95,93.3822,266.7311,-7.6242e-06,-4.09e-06,0.0,0 STARLINK-3628,1 51783U 22017R   23172.57369325 -.00000409  00000-0 -76242-5 0  9992,2 51783  53.2163 112.9500 0001234  93.3822 266.7311 15.08844767 72646,6917.866,95.437,540.584,538.877,0.0
51783.0,STARLINK-3628,PAYLOAD,2023-06-22 05:39:58,15.08850156,0.0001041,53.2177,109.975,103.5154,256.5955,-7.756e-05,-1.522e-05,0.0,0 STARLINK-3628,1 51783U 22017R   23173.23609282 -.00001522  00000-0 -77560-4 0  9995,2 51783  53.2177 109.9750 0001041 103.5154 256.5955 15.08850156 74385,6917.849,95.437,540.434,538.994,0.0
51783.0,STARLINK-3628,PAYLOAD,2023-06-23 02:19:59,15.08842665,0.0001183,53.2163,106.1108,82.0495,278.0631,2.5281e-05,1.15e-06,0.0,0 STARLINK-3628,1 51783U 22017R   23174.09721557  .00000115  00000-0  25281-4 0  9998,2 51783  53.2163 106.1108 0001183  82.0495 278.0631 15.08842665 74513,6917.872,95.437,540.556,538.919,0.0
51783.0,STARLINK-3628,PAYLOAD,2023-06-24 03:46:09,15.08846791,0.0001108,53.2168,101.3539,89.3289,270.783,4.3085e-05,3.98e-06,0.0,0 STARLINK-3628,1 51783U 22017R   23175.15705232  .00000398  00000-0  43085-4 0  9993,2 51783  53.2168 101.3539 0001108  89.3289 270.7830 15.08846791 74672,6917.86,95.437,540.491,538.958,0.0
51783.0,STARLINK-3628,PAYLOAD,2023-06-25 02:01:33,15.0884124,9.33e-05,53.2167,97.1917,94.3727,265.7371,1.2241e-05,-9.3e-07,0.0,0 STARLINK-3628,1 51783U 22017R   23176.08441908 -.00000093  00000-0  12241-4 0  9996,2 51783  53.2167  97.1917 0000933  94.3727 265.7371 15.08841240 74815,6917.877,95.437,540.387,539.096,0.0
51783.0,STARLINK-3628,PAYLOAD,2023-06-26 03:27:43,15.08846875,0.0001033,53.2169,92.4331,84.4331,275.6779,2.9717e-05,1.85e-06,0.0,0 STARLINK-3628,1 51783U 22017R   23177.14425688  .00000185  00000-0  29717-4 0  9998,2 51783  53.2169  92.4331 0001033  84.4331 275.6779 15.08846875 74976,6917.859,95.437,540.439,539.01,0.0
51783.0,STARLINK-3628,PAYLOAD,2023-06-27 01:43:08,15.08841517,8.46e-05,53.2172,88.2706,85.4119,274.697,5.9668e-05,6.62e-06,0.0,0 STARLINK-3628,1 51783U 22017R   23178.07162101  .00000662  00000-0  59668-4 0  9997,2 51783  53.2172  88.2706 0000846  85.4119 274.6970 15.08841517 75112,6917.876,95.437,540.326,539.155,0.0
51783.0,STARLINK-3628,PAYLOAD,2023-06-28 03:09:17,15.08845917,8.73e-05,53.2169,83.5117,87.8079,272.3013,7.7689e-05,9.49e-06,0.0,0 STARLINK-3628,1 51783U 22017R   23179.13145820  .00000949  00000-0  77689-4 0  9995,2 51783  53.2169  83.5117 0000873  87.8079 272.3013 15.08845917 75271,6917.862,95.437,540.331,539.123,0.0
51783.0,STARLINK-3628,PAYLOAD,2023-06-29 03:00:05,15.08838449,8.69e-05,53.2167,79.0511,89.7332,270.3759,2.1098e-05,4.8e-07,0.0,0 STARLINK-3628,1 51783U 22017R   23180.12506646  .00000048  00000-0  21098-4 0  9996,2 51783  53.2167  79.0511 0000869  89.7332 270.3759 15.08838449 75429,6917.885,95.438,540.351,539.149,0.0
51783.0,STARLINK-3628,PAYLOAD,2023-07-01 01:06:16,15.08839542,0.0001027,53.2176,70.4282,83.4638,276.6472,4.2866e-05,3.95e-06,0.0,0 STARLINK-3628,1 51783U 22017R   23182.04602608  .00000395  00000-0  42866-4 0  9995,2 51783  53.2176  70.4282 0001027  83.4638 276.6472 15.08839542 75714,6917.882,95.438,540.457,539.036,0.0
51783.0,STARLINK-3628,PAYLOAD,2023-07-01 09:03:12,15.08834343,0.000104,53.2176,68.9422,82.6205,277.4906,-1.4157e-05,-5.13e-06,0.0,0 STARLINK-3628,1 51783U 22017R   23182.37723172 -.00000513  00000-0 -14157-4 0  9997,2 51783  53.2176  68.9422 0001040  82.6205 277.4906 15.08834343 75768,6917.898,95.438,540.482,539.043,0.0
51783.0,STARLINK-3628,PAYLOAD,2023-07-01 23:21:40,15.08841308,0.0001051,53.2177,66.2662,97.0437,263.0674,-6.3829e-05,-1.303e-05,0.0,0 STARLINK-3628,1 51783U 22017R   23182.97339044 -.00001303  00000-0 -63829-4 0  9992,2 51783  53.2177  66.2662 0001051  97.0437 263.0674 15.08841308 75857,6917.876,95.437,540.468,539.014,0.0
51783.0,STARLINK-3628,PAYLOAD,2023-07-03 08:44:47,15.08836266,0.0001143,53.2183,60.0223,87.0684,273.0439,5.6823e-05,6.17e-06,0.0,0 STARLINK-3628,1 51783U 22017R   23184.36443295  .00000617  00000-0  56823-4 0  9992,2 51783  53.2183  60.0223 0001143  87.0684 273.0439 15.08836266 76065,6917.892,95.438,540.548,538.966,0.0
51783.0,STARLINK-3628,PAYLOAD,2023-07-04 14:57:06,15.08840153,0.0001121,53.2177,54.3718,87.1045,273.0076,3.3381e-05,2.43e-06,0.0,0 STARLINK-3628,1 51783U 22017R   23185.62299322  .00000243  00000-0  33381-4 0  9991,2 51783  53.2177  54.3718 0001121  87.1045 273.0076 15.08840153 76259,6917.88,95.438,540.52,538.969,0.0
